[{"id": 1, "street": "Müllerstraße 5", "postalCode": 13356, "area":"Wedding",
    "city": "Berlin", "numRooms": 4, "sqm": 110, "rent":1100, "landlordId": 1, "isRented":false},
    {"id": 2, "street": "Bäkestrasse 10", "postalCode": 12113, "area":"Steglitz",
        "city": "Berlin", "numRooms": 3, "sqm":70, "rent":900, "landlordId": 1, "isRented":true},
        {"id": 3, "street": "Rosenthalerplatz 1", "postalCode": 10012, "area":"Mitte",
            "city": "Berlin", "numRooms": 2, "sqm": 60, "rent":800, "landlordId": 3, "isRented":false},
            {"id": 4, "street": "Amsterdamer Strasse 10", "postalCode": 13356, "area":"Wedding",
                "city": "Berlin", "numRooms": 5, "sqm": 130, "rent":1400, "landlordId": 3, "isRented":true},
                {"id": 5, "street": "Schlossstrasse 123", "postalCode": 12163, "area":"Steglitz",
                    "city": "Berlin", "numRooms": 4, "sqm": 140, "rent":1600, "landlordId": 3, "isRented":false},
                    {"id": 6, "street": "Gitschinerstrasse 33", "postalCode": 10965, "area":"Kreuzberg",
                        "city": "Berlin", "numRooms": 3, "sqm": 90, "rent":1100, "landlordId": 4, "isRented":false},
                        {"id": 7, "street": "Zossener Strasse 6", "postalCode": 10966, "area":"Kreuzberg",
                            "city": "Berlin", "numRooms": 2, "sqm": 50, "rent":800, "landlordId": 1, "isRented":false},
                            {"id": 8, "street": "Warschauer Strasse 8", "postalCode": 13300, "area":"Friedrichshain",
                                "city": "Berlin", "numRooms": 4, "sqm": 90, "rent":1100, "landlordId": 3, "isRented":false}]